[{"OBJECT_NAME":"DMC3-FM1","OBJECT_ID":"2015-032A","EPOCH":"2026-03-09T22:19:47.710848","MEAN_MOTION":14.85617645,"ECCENTRICITY":0.00064603,"INCLINATION":97.6608,"RA_OF_ASC_NODE":297.9178,"ARG_OF_PERICENTER":33.342,"MEAN_ANOMALY":326.8201,"EPHEMERIS_TYPE":0,"CLASSIFICATION_TYPE":"U","NORAD_CAT_ID":40715,"ELEMENT_SET_NO":999,"REV_AT_EPOCH":57517,"BSTAR":0.0002262111,"MEAN_MOTION_DOT":1.907e-5,"MEAN_MOTION_DDOT":0},{"OBJECT_NAME":"CZ-4C DEB","OBJECT_ID":"2015-069E","EPOCH":"2026-03-08T09:26:17.543040","MEAN_MOTION":15.0129982,"ECCENTRICITY":0.00755181,"INCLINATION":98.2766,"RA_OF_ASC_NODE":51.2744,"ARG_OF_PERICENTER":283.3594,"MEAN_ANOMALY":75.9217,"EPHEMERIS_TYPE":0,"CLASSIFICATION_TYPE":"U","NORAD_CAT_ID":42672,"ELEMENT_SET_NO":999,"REV_AT_EPOCH":54397,"BSTAR":0.0018440127,"MEAN_MOTION_DOT":0.00025217,"MEAN_MOTION_DDOT":0}]
